GLOBALSTAR M096         
1 39075U 13005D   24147.45519992 -.00000091  00000+0  72087-4 0  9993
2 39075  52.0088 327.8148 0001185 106.9895 253.1101 12.62266056522452
GLOBALSTAR M078         
1 39076U 13005E   24147.03331233 -.00000001  00000+0  57624-3 0  9998
2 39076  51.9891  54.1364 0001565  53.0814 307.0196 12.62276496521022
GLOBALSTAR M087         
1 52888U 22064A   24147.58862981 -.00000078  00000+0  94817-4 0  9998
2 52888  51.9761 283.6945 0008701 311.3710  48.6442 13.37574985 94633
